[{"OBJECT_NAME":"STARLINK-4156","OBJECT_ID":"2022-076BE","EPOCH":"2026-03-09T08:11:56.505408","MEAN_MOTION":15.08845886,"ECCENTRICITY":0.00011392,"INCLINATION":53.2176,"RA_OF_ASC_NODE":75.6803,"ARG_OF_PERICENTER":78.8709,"MEAN_ANOMALY":281.2411,"EPHEMERIS_TYPE":0,"CLASSIFICATION_TYPE":"U","NORAD_CAT_ID":53038,"ELEMENT_SET_NO":999,"REV_AT_EPOCH":20307,"BSTAR":3.8519258e-5,"MEAN_MOTION_DOT":3.25e-6,"MEAN_MOTION_DDOT":0},{"OBJECT_NAME":"FENGYUN 1C DEB","OBJECT_ID":"1999-025DMH","EPOCH":"2026-03-08T12:22:59.285280","MEAN_MOTION":14.74467635,"ECCENTRICITY":0.01679532,"INCLINATION":98.8961,"RA_OF_ASC_NODE":332.7174,"ARG_OF_PERICENTER":174.5846,"MEAN_ANOMALY":185.7228,"EPHEMERIS_TYPE":0,"CLASSIFICATION_TYPE":"U","NORAD_CAT_ID":35153,"ELEMENT_SET_NO":999,"REV_AT_EPOCH":98481,"BSTAR":0.00043532495,"MEAN_MOTION_DOT":3.561e-5,"MEAN_MOTION_DDOT":0}]
